{"type": "FeatureCollection", "features": [ {"type": "Feature", "properties": {"norad_id": 67050, "name": "STARLINK-36078", "group": "last-30-days", "lat": 8.473320877533528, "lon": 138.2792380430389, "alt_km": 312.89742563741856, "timestamp": "2025-12-21T09:37:21.375368+00:00", "meta": {"OBJECT_NAME": "STARLINK-36078", "OBJECT_ID": "2025-294W", "EPOCH": "2025-12-21T04:00:01.998720", "MEAN_MOTION": 15.85996026, "ECCENTRICITY": 0.0002245, "INCLINATION": 43.0006, "RA_OF_ASC_NODE": 130.5244, "ARG_OF_PERICENTER": 268.5294, "MEAN_ANOMALY": 204.9418, "EPHEMERIS_TYPE": 0, "CLASSIFICATION_TYPE": "U", "NORAD_CAT_ID": 67050, "ELEMENT_SET_NO": 999, "REV_AT_EPOCH": 158, "BSTAR": -0.0012938, "MEAN_MOTION_DOT": -0.00318481, "MEAN_MOTION_DDOT": 0}, "tle": {"line1": "1 67050U 25294W   25355.16668980 -.00318481  00000+0 -12938-2 0  9995", "line2": "2 67050  43.0006 130.5244 0002245 268.5294 204.9418 15.85996026  1584"}}, "geometry": {"type": "Point", "coordinates": [138.2792380430389, 8.473320877533528]}}, {"type": "Feature", "properties": {"norad_id": 67051, "name": "STARLINK-35706", "group": "last-30-days", "lat": 10.104979898853296, "lon": 140.09933189113306, "alt_km": 313.4580687644939, "timestamp": "2025-12-21T09:37:21.375378+00:00", "meta": {"OBJECT_NAME": "STARLINK-35706", "OBJECT_ID": "2025-294X", "EPOCH": "2025-12-21T04:00:01.998720", "MEAN_MOTION": 15.86406555, "ECCENTRICITY": 0.0001548, "INCLINATION": 43.0007, "RA_OF_ASC_NODE": 130.5182, "ARG_OF_PERICENTER": 275.5236, "MEAN_ANOMALY": 200.3418, "EPHEMERIS_TYPE": 0, "CLASSIFICATION_TYPE": "U", "NORAD_CAT_ID": 67051, "ELEMENT_SET_NO": 999, "REV_AT_EPOCH": 166, "BSTAR": -0.007344, "MEAN_MOTION_DOT": -0.01663493, "MEAN_MOTION_DDOT": 0}, "tle": {"line1": "1 67051U 25294X   25355.16668980 -.01663493  00000+0 -73440-2 0  9998", "line2": "2 67051  43.0007 130.5182 0001548 275.5236 200.3418 15.86406555  1669"}}, "geometry": {"type": "Point", "coordinates": [140.09933189113306, 10.104979898853296]}}, {"type": "Feature", "properties": {"norad_id": 67052, "name": "STARLINK-35720", "group": "last-30-days", "lat": 11.437124924251284, "lon": 141.60779029542707, "alt_km": 313.2167198978532, "timestamp": "2025-12-21T09:37:21.375387+00:00", "meta": {"OBJECT_NAME": "STARLINK-35720", "OBJECT_ID": "2025-294Y", "EPOCH": "2025-12-21T04:00:01.998720", "MEAN_MOTION": 15.86433397, "ECCENTRICITY": 0.0001544, "INCLINATION": 43.0007, "RA_OF_ASC_NODE": 130.5134, "ARG_OF_PERICENTER": 276.7741, "MEAN_ANOMALY": 201.0668, "EPHEMERIS_TYPE": 0, "CLASSIFICATION_TYPE": "U", "NORAD_CAT_ID": 67052, "ELEMENT_SET_NO": 999, "REV_AT_EPOCH": 165, "BSTAR": -0.0073952, "MEAN_MOTION_DOT": -0.01675472, "MEAN_MOTION_DDOT": 0}, "tle": {"line1": "1 67052U 25294Y   25355.16668980 -.01675472  00000+0 -73952-2 0  9997", "line2": "2 67052  43.0007 130.5134 0001544 276.7741 201.0668 15.86433397  1655"}}, "geometry": {"type": "Point", "coordinates": [141.60779029542707, 11.437124924251284]}}, {"type": "Feature", "properties": {"norad_id": 67053, "name": "STARLINK-35739", "group": "last-30-days", "lat": 12.95218401976553, "lon": 143.3513323995893, "alt_km": 313.02477275461297, "timestamp": "2025-12-21T09:37:21.375401+00:00", "meta": {"OBJECT_NAME": "STARLINK-35739", "OBJECT_ID": "2025-294Z", "EPOCH": "2025-12-21T04:00:01.998720", "MEAN_MOTION": 15.86444815, "ECCENTRICITY": 0.0001452, "INCLINATION": 43.0008, "RA_OF_ASC_NODE": 130.5073, "ARG_OF_PERICENTER": 276.3124, "MEAN_ANOMALY": 203.8071, "EPHEMERIS_TYPE": 0, "CLASSIFICATION_TYPE": "U", "NORAD_CAT_ID": 67053, "ELEMENT_SET_NO": 999, "REV_AT_EPOCH": 130, "BSTAR": -0.007464, "MEAN_MOTION_DOT": -0.01689707, "MEAN_MOTION_DDOT": 0}, "tle": {"line1": "1 67053U 25294Z   25355.16668980 -.01689707  00000+0 -74640-2 0  9999", "line2": "2 67053  43.0008 130.5073 0001452 276.3124 203.8071 15.86444815  1305"}}, "geometry": {"type": "Point", "coordinates": [143.3513323995893, 12.95218401976553]}}, {"type": "Feature", "properties": {"norad_id": 67054, "name": "STARLINK-35754", "group": "last-30-days", "lat": 14.613257696932585, "lon": 145.3043767312499, "alt_km": 312.87612872766204, "timestamp": "2025-12-21T09:37:21.375411+00:00", "meta": {"OBJECT_NAME": "STARLINK-35754", "OBJECT_ID": "2025-294AA", "EPOCH": "2025-12-21T04:00:01.998720", "MEAN_MOTION": 15.864385, "ECCENTRICITY": 0.0001485, "INCLINATION": 43.0006, "RA_OF_ASC_NODE": 130.501, "ARG_OF_PERICENTER": 275.4155, "MEAN_ANOMALY": 207.236, "EPHEMERIS_TYPE": 0, "CLASSIFICATION_TYPE": "U", "NORAD_CAT_ID": 67054, "ELEMENT_SET_NO": 999, "REV_AT_EPOCH": 147, "BSTAR": -0.0075171, "MEAN_MOTION_DOT": -0.01699666, "MEAN_MOTION_DDOT": 0}, "tle": {"line1": "1 67054U 25294AA  25355.16668980 -.01699666  00000+0 -75171-2 0  9995", "line2": "2 67054  43.0006 130.5010 0001485 275.4155 207.2360 15.86438500  1476"}}, "geometry": {"type": "Point", "coordinates": [145.3043767312499, 14.613257696932585]}}, {"type": "Feature", "properties": {"norad_id": 67055, "name": "STARLINK-35790", "group": "last-30-days", "lat": 16.187880173030358, "lon": 147.20134747947532, "alt_km": 312.68278233446745, "timestamp": "2025-12-21T09:37:21.375423+00:00", "meta": {"OBJECT_NAME": "STARLINK-35790", "OBJECT_ID": "2025-294AB", "EPOCH": "2025-12-21T04:00:01.998720", "MEAN_MOTION": 15.86441163, "ECCENTRICITY": 0.0001513, "INCLINATION": 43.0004, "RA_OF_ASC_NODE": 130.4945, "ARG_OF_PERICENTER": 276.0191, "MEAN_ANOMALY": 209.0493, "EPHEMERIS_TYPE": 0, "CLASSIFICATION_TYPE": "U", "NORAD_CAT_ID": 67055, "ELEMENT_SET_NO": 999, "REV_AT_EPOCH": 166, "BSTAR": -0.0075756, "MEAN_MOTION_DOT": -0.01711303, "MEAN_MOTION_DDOT": 0}, "tle": {"line1": "1 67055U 25294AB  25355.16668980 -.01711303  00000+0 -75756-2 0  9998", "line2": "2 67055  43.0004 130.4945 0001513 276.0191 209.0493 15.86441163  1667"}}, "geometry": {"type": "Point", "coordinates": [147.20134747947532, 16.187880173030358]}}, {"type": "Feature", "properties": {"norad_id": 67056, "name": "STARLINK-36143", "group": "last-30-days", "lat": 20.15740122610829, "lon": 152.23338093344273, "alt_km": 312.0230905996996, "timestamp": "2025-12-21T09:37:21.375434+00:00", "meta": {"OBJECT_NAME": "STARLINK-36143", "OBJECT_ID": "2025-294AC", "EPOCH": "2025-12-21T04:00:01.998720", "MEAN_MOTION": 15.86495342, "ECCENTRICITY": 0.0001468, "INCLINATION": 43.0005, "RA_OF_ASC_NODE": 130.4787, "ARG_OF_PERICENTER": 277.0596, "MEAN_ANOMALY": 214.1891, "EPHEMERIS_TYPE": 0, "CLASSIFICATION_TYPE": "U", "NORAD_CAT_ID": 67056, "ELEMENT_SET_NO": 999, "REV_AT_EPOCH": 166, "BSTAR": -0.0076599, "MEAN_MOTION_DOT": -0.0173167, "MEAN_MOTION_DDOT": 0}, "tle": {"line1": "1 67056U 25294AC  25355.16668980 -.01731670  00000+0 -76599-2 0  9994", "line2": "2 67056  43.0005 130.4787 0001468 277.0596 214.1891 15.86495342  1669"}}, "geometry": {"type": "Point", "coordinates": [152.23338093344273, 20.15740122610829]}}, {"type": "Feature", "properties": {"norad_id": 67057, "name": "STARLINK-36141", "group": "last-30-days", "lat": 18.820656236315244, "lon": 150.4941375827755, "alt_km": 311.4098298340559, "timestamp": "2025-12-21T09:37:21.375446+00:00", "meta": {"OBJECT_NAME": "STARLINK-36141", "OBJECT_ID": "2025-294AD", "EPOCH": "2025-12-21T04:00:01.998720", "MEAN_MOTION": 15.86089085, "ECCENTRICITY": 0.0002273, "INCLINATION": 43.0003, "RA_OF_ASC_NODE": 130.4844, "ARG_OF_PERICENTER": 275.8213, "MEAN_ANOMALY": 213.3421, "EPHEMERIS_TYPE": 0, "CLASSIFICATION_TYPE": "U", "NORAD_CAT_ID": 67057, "ELEMENT_SET_NO": 999, "REV_AT_EPOCH": 158, "BSTAR": -0.0016668, "MEAN_MOTION_DOT": -0.00407918, "MEAN_MOTION_DDOT": 0}, "tle": {"line1": "1 67057U 25294AD  25355.16668980 -.00407918  00000+0 -16668-2 0  9990", "line2": "2 67057  43.0003 130.4844 0002273 275.8213 213.3421 15.86089085  1583"}}, "geometry": {"type": "Point", "coordinates": [150.4941375827755, 18.820656236315244]}}, {"type": "Feature", "properties": {"norad_id": 67058, "name": "STARLINK-35767", "group": "last-30-days", "lat": 17.529034791566662, "lon": 148.8578151203083, "alt_km": 312.5083964848718, "timestamp": "2025-12-21T09:37:21.375456+00:00", "meta": {"OBJECT_NAME": "STARLINK-35767", "OBJECT_ID": "2025-294AE", "EPOCH": "2025-12-21T04:00:01.998720", "MEAN_MOTION": 15.86459888, "ECCENTRICITY": 0.0001534, "INCLINATION": 43.0006, "RA_OF_ASC_NODE": 130.4892, "ARG_OF_PERICENTER": 274.4431, "MEAN_ANOMALY": 212.6902, "EPHEMERIS_TYPE": 0, "CLASSIFICATION_TYPE": "U", "NORAD_CAT_ID": 67058, "ELEMENT_SET_NO": 999, "REV_AT_EPOCH": 147, "BSTAR": -0.0076031, "MEAN_MOTION_DOT": -0.0171805, "MEAN_MOTION_DDOT": 0}, "tle": {"line1": "1 67058U 25294AE  25355.16668980 -.01718050  00000+0 -76031-2 0  9994", "line2": "2 67058  43.0006 130.4892 0001534 274.4431 212.6902 15.86459888  1472"}}, "geometry": {"type": "Point", "coordinates": [148.8578151203083, 17.529034791566662]}}, {"type": "Feature", "properties": {"norad_id": 67059, "name": "HULIANWANG DIGUI-119", "group": "last-30-days", "lat": 21.529189618389065, "lon": -4.986592466916326, "alt_km": 807.3816843443083, "timestamp": "2025-12-21T09:37:21.375466+00:00", "meta": {"OBJECT_NAME": "HULIANWANG DIGUI-119", "OBJECT_ID": "2025-295A", "EPOCH": "2025-12-19T01:58:11.792352", "MEAN_MOTION": 14.25571005, "ECCENTRICITY": 0.00138542, "INCLINATION": 50.0068, "RA_OF_ASC_NODE": 345.4665, "ARG_OF_PERICENTER": 270.351, "MEAN_ANOMALY": 89.5816, "EPHEMERIS_TYPE": 0, "CLASSIFICATION_TYPE": "U", "NORAD_CAT_ID": 67059, "ELEMENT_SET_NO": 999, "REV_AT_EPOCH": 102, "BSTAR": -9.244819e-06, "MEAN_MOTION_DOT": -1.82e-06, "MEAN_MOTION_DDOT": 0}, "tle": {"line1": "1 67059U 25295A   25353.08208093 -.00000182  00000+0 -92448-5 0  9992", "line2": "2 67059  50.0068 345.4665 0013854 270.3510  89.5816 14.25571005  1020"}}, "geometry": {"type": "Point", "coordinates": [-4.986592466916326, 21.529189618389065]}}]}